{
    "links": {
        "self": "http://www.neowsapp.com/rest/v1/neo/3766067?api_key=iIulBulltgU6a56xZRHN4H3l9WmuAYTsLGpBGhQ2"
    },
    "id": "3766067",
    "neo_reference_id": "3766067",
    "name": "(2016 YP)",
    "designation": "2016 YP",
    "nasa_jpl_url": "http://ssd.jpl.nasa.gov/sbdb.cgi?sstr=3766067",
    "absolute_magnitude_h": 22.9,
    "estimated_diameter": {
        "kilometers": {
            "estimated_diameter_min": 0.0699125232,
            "estimated_diameter_max": 0.1563291544
        },
        "meters": {
            "estimated_diameter_min": 69.9125232246,
            "estimated_diameter_max": 156.3291544087
        },
        "miles": {
            "estimated_diameter_min": 0.0434416145,
            "estimated_diameter_max": 0.097138403
        },
        "feet": {
            "estimated_diameter_min": 229.3718026961,
            "estimated_diameter_max": 512.8909429502
        }
    },
    "is_potentially_hazardous_asteroid": false,
    "close_approach_data": [
        {
            "close_approach_date": "1926-12-25",
            "close_approach_date_full": "1926-Dec-25 21:14",
            "epoch_date_close_approach": -1357526760000,
            "relative_velocity": {
                "kilometers_per_second": "25.7290276719",
                "kilometers_per_hour": "92624.49961884",
                "miles_per_hour": "57553.2619992731"
            },
            "miss_distance": {
                "astronomical": "0.4123136515",
                "lunar": "160.3900104335",
                "kilometers": "61681244.036322305",
                "miles": "38326947.799985609"
            },
            "orbiting_body": "Earth"
        },
        {
            "close_approach_date": "1933-11-25",
            "close_approach_date_full": "1933-Nov-25 10:56",
            "epoch_date_close_approach": -1139231040000,
            "relative_velocity": {
                "kilometers_per_second": "12.7635179573",
                "kilometers_per_hour": "45948.6646463844",
                "miles_per_hour": "28550.7133187492"
            },
            "miss_distance": {
                "astronomical": "0.0296598848",
                "lunar": "11.5376951872",
                "kilometers": "4437055.590525376",
                "miles": "2757058.4974511488"
            },
            "orbiting_body": "Earth"
        },
        {
            "close_approach_date": "1947-07-22",
            "close_approach_date_full": "1947-Jul-22 08:46",
            "epoch_date_close_approach": -708362040000,
            "relative_velocity": {
                "kilometers_per_second": "25.2704449488",
                "kilometers_per_hour": "90973.6018157236",
                "miles_per_hour": "56527.4583059978"
            },
            "miss_distance": {
                "astronomical": "0.4226523226",
                "lunar": "164.4117534914",
                "kilometers": "63227887.211512862",
                "miles": "39287987.3050550156"
            },
            "orbiting_body": "Earth"
        },
        {
            "close_approach_date": "2016-12-05",
            "close_approach_date_full": "2016-Dec-05 13:21",
            "epoch_date_close_approach": 1480944060000,
            "relative_velocity": {
                "kilometers_per_second": "15.4841354484",
                "kilometers_per_hour": "55742.8876143214",
                "miles_per_hour": "34636.4625845765"
            },
            "miss_distance": {
                "astronomical": "0.0694272842",
                "lunar": "27.0072135538",
                "kilometers": "10386173.836204654",
                "miles": "6453669.1612020652"
            },
            "orbiting_body": "Earth"
        }
    ],
    "orbital_data": {
        "orbit_id": "12",
        "orbit_determination_date": "2017-04-06 08:21:26",
        "first_observation_date": "2016-12-18",
        "last_observation_date": "2017-01-05",
        "data_arc_in_days": 18,
        "observations_used": 61,
        "orbit_uncertainty": "7",
        "minimum_orbit_intersection": ".010875",
        "jupiter_tisserand_invariant": "3.309",
        "epoch_osculation": "2459000.5",
        "eccentricity": ".6187970786116829",
        "semi_major_axis": "2.289116414166732",
        "inclination": "5.989220645821249",
        "ascending_node_longitude": "251.5110899235113",
        "orbital_period": "1265.028314216018",
        "perihelion_distance": ".8726178644783074",
        "perihelion_argument": "127.9708125458603",
        "aphelion_distance": "3.705614963855157",
        "perihelion_time": "2458956.311824743808",
        "mean_anomaly": "12.57500951833457",
        "mean_motion": ".2845786105768743",
        "equinox": "J2000",
        "orbit_class": {
            "orbit_class_type": "APO",
            "orbit_class_description": "Near-Earth asteroid orbits which cross the Earth’s orbit similar to that of 1862 Apollo",
            "orbit_class_range": "a (semi-major axis) > 1.0 AU; q (perihelion) < 1.017 AU"
        }
    },
    "is_sentry_object": false
}